FLOCK 4G-13             
1 62621U 25009N   26068.70638971  .00053076  00000+0  16695-2 0  9995
2 62621  97.4019 151.0918 0003801 292.7207  67.3633 15.32770015 63700
STARLINK-33964          
1 64118U 25110Y   26068.29504087  .00030038  00000+0  10226-2 0  9992
2 64118  53.1608  28.4792 0001047  79.4567 280.6551 15.30188737 45826
